STARLINK-2511
1 48332U 21036BJ  24101.44198063  .00003481  00000+0  25244-3 0  9990
2 48332  53.0540 356.1712 0001417  80.0036 280.1112 15.06401189163385
STARLINK-30822
1 58193U 23167U   24101.06579264  .00000083  00000+0  21253-4 0  9999
2 58193  43.0061 342.0904 0001462 265.4421  94.6254 15.02532428 25864
